HIERARCHY
ROOT root
{
	OFFSET 0.000000 0.000000 0.000000
	CHANNELS 6 Xposition Yposition Zposition Xrotation Yrotation Zrotation
	JOINT hips
	{
		OFFSET 0.000000 0.000000 18.000000
		CHANNELS 3 Xrotation Yrotation Zrotation
		JOINT spine
		{
			OFFSET 0.000000 0.000000 6.500000
			CHANNELS 6 Xposition Yposition Zposition Xrotation Yrotation Zrotation
			JOINT head
			{
				OFFSET 0.000000 0.000000 14.000000
				CHANNELS 6 Xposition Yposition Zposition Xrotation Yrotation Zrotation
				End Site
				{
					OFFSET 0.000000 0.000000 12.589909
				}
			}
			JOINT arm_upper.L
			{
				OFFSET 4.500000 0.000000 11.000000
				CHANNELS 6 Xposition Yposition Zposition Xrotation Yrotation Zrotation
				JOINT arm_lower.L
				{
					OFFSET 2.300004 -1.300001 -4.999996
					CHANNELS 6 Xposition Yposition Zposition Xrotation Yrotation Zrotation
					JOINT hand.L
					{
						OFFSET 3.199997 -3.199998 -1.499998
						CHANNELS 3 Xrotation Yrotation Zrotation
						JOINT weapon
						{
							OFFSET 1.199999 -1.499996 -1.500002
							CHANNELS 3 Xrotation Yrotation Zrotation
							End Site
							{
								OFFSET 2.437205 -0.000000 -0.000002
							}
						}
					}
				}
			}
			JOINT arm_upper.R
			{
				OFFSET -4.500000 0.000000 11.000000
				CHANNELS 6 Xposition Yposition Zposition Xrotation Yrotation Zrotation
				JOINT arm_lower.R
				{
					OFFSET -2.300001 -1.800001 -5.000004
					CHANNELS 3 Xrotation Yrotation Zrotation
					JOINT hand.R
					{
						OFFSET 1.800002 -2.699999 0.000000
						CHANNELS 3 Xrotation Yrotation Zrotation
						End Site
						{
							OFFSET 1.798079 -1.498400 -2.247599
						}
					}
				}
			}
		}
		JOINT leg_upper.L
		{
			OFFSET 3.000000 0.000000 1.000000
			CHANNELS 6 Xposition Yposition Zposition Xrotation Yrotation Zrotation
			JOINT leg_lower.L
			{
				OFFSET 0.800000 -1.200000 -7.000002
				CHANNELS 3 Xrotation Yrotation Zrotation
				JOINT foot.L
				{
					OFFSET 0.199999 -0.299999 -5.499996
					CHANNELS 3 Xrotation Yrotation Zrotation
					End Site
					{
						OFFSET 0.000000 -4.586095 -3.057396
					}
				}
			}
		}
		JOINT leg_upper.R
		{
			OFFSET -3.000000 0.000000 1.000000
			CHANNELS 6 Xposition Yposition Zposition Xrotation Yrotation Zrotation
			JOINT leg_lower.R
			{
				OFFSET -0.800000 -1.200000 -7.000002
				CHANNELS 3 Xrotation Yrotation Zrotation
				JOINT foot.R
				{
					OFFSET -0.199999 -0.299999 -5.499996
					CHANNELS 3 Xrotation Yrotation Zrotation
					End Site
					{
						OFFSET -0.000000 -4.586095 -3.057396
					}
				}
			}
		}
	}
}
MOTION
Frames: 15
Frame Time: 0.041667
0.000000 0.000000 0.000000 0.000009 0.000000 -0.000000 -0.000000 0.000000 -0.000000 0.000000 0.000000 6.500000 -0.000000 0.000000 -0.000000 0.000000 0.000000 14.000000 -0.000000 0.000000 -0.000000 4.500003 -0.000002 11.000000 -0.000007 0.000004 -0.000000 2.300000 -1.300001 -5.000000 0.000008 -0.000008 -0.000012 -0.000000 -0.000007 -0.000003 0.000011 -0.000002 -0.000010 -4.500000 -0.000002 10.999996 0.000003 0.000003 -0.000001 0.000004 0.000012 -0.000000 0.000001 0.000007 0.000005 3.000001 -0.000001 0.999996 -0.000008 -0.000002 -0.000001 -0.000000 -0.000001 0.000000 -0.000010 0.000001 -0.000000 -3.000001 -0.000001 0.999996 -0.000008 0.000002 0.000001 -0.000000 0.000001 -0.000000 -0.000010 -0.000001 0.000000 
0.000000 0.000000 0.000000 0.000009 0.000000 -0.000000 -0.000000 0.000000 -0.000000 0.000000 0.000000 6.500000 0.888890 0.000000 -0.000000 0.000000 0.000000 13.999996 -0.000000 0.000000 -0.000000 4.500002 -0.000002 10.999998 0.911421 -0.507103 -0.701598 2.300001 -1.300001 -4.999998 0.000004 -0.000009 -0.000009 0.000001 -0.000000 -0.000001 0.000014 0.000001 -0.000007 -4.500000 -0.000002 10.999998 0.470173 0.374809 1.027853 0.000004 0.000013 0.000007 0.000003 0.000009 0.000007 3.000001 -0.000001 0.999996 -0.000008 -0.000002 -0.000001 -0.000000 -0.000001 0.000000 -0.000010 0.000001 -0.000000 -3.000001 -0.000001 0.999996 -0.000008 0.000002 0.000001 -0.000000 0.000001 -0.000000 -0.000010 -0.000001 0.000000 
0.000000 0.000000 0.000000 0.000009 0.000000 -0.000000 -0.000000 0.000000 -0.000000 0.000000 0.000000 6.500000 3.111113 0.000000 -0.000000 0.000000 -0.000000 14.000000 -0.000000 0.000000 -0.000000 4.500003 -0.000002 10.999998 3.137939 -1.866318 -2.418575 2.300001 -1.300001 -5.000008 0.000006 -0.000005 -0.000009 -0.000000 -0.000003 -0.000001 0.000014 -0.000001 -0.000007 -4.500000 -0.000001 11.000000 1.690268 1.414510 3.753340 0.000003 0.000011 -0.000009 0.000004 0.000004 0.000008 3.000001 -0.000001 0.999996 -0.000008 -0.000002 -0.000001 -0.000000 -0.000001 0.000000 -0.000010 0.000001 -0.000000 -3.000001 -0.000001 0.999996 -0.000008 0.000002 0.000001 -0.000000 0.000001 -0.000000 -0.000010 -0.000001 0.000000 
0.000000 0.000000 0.000000 0.000009 0.000000 -0.000000 -0.000000 0.000000 -0.000000 0.000000 0.000000 6.500000 5.999998 0.000000 -0.000000 0.000000 0.000000 14.000000 -0.000000 0.000000 -0.000000 4.500001 -0.000001 11.000001 5.916232 -3.820502 -4.567952 2.300001 -1.299999 -5.000004 0.000003 -0.000006 -0.000005 -0.000002 -0.000000 -0.000000 0.000011 -0.000000 -0.000007 -4.500000 0.000000 11.000002 3.355412 3.006981 7.633268 0.000003 0.000011 -0.000003 0.000006 0.000008 0.000003 3.000001 -0.000001 0.999996 -0.000008 -0.000002 -0.000001 -0.000000 -0.000001 0.000000 -0.000010 0.000001 -0.000000 -3.000001 -0.000001 0.999996 -0.000008 0.000002 0.000001 -0.000000 0.000001 -0.000000 -0.000010 -0.000001 0.000000 
0.000000 0.000000 0.000000 0.000009 0.000000 -0.000000 -0.000000 0.000000 -0.000000 0.000000 0.000000 6.500000 8.888889 0.000000 -0.000000 0.000000 -0.000000 13.999996 -0.000000 0.000000 -0.000000 4.500002 -0.000001 10.999994 8.557325 -5.973876 -6.620350 2.300001 -1.300000 -5.000000 0.000006 -0.000011 -0.000008 -0.000000 -0.000003 -0.000001 0.000013 0.000002 -0.000009 -4.500000 -0.000001 10.999999 5.170278 5.013055 12.134391 0.000003 0.000014 0.000005 0.000006 0.000002 0.000006 3.000001 -0.000001 0.999996 -0.000008 -0.000002 -0.000001 -0.000000 -0.000001 0.000000 -0.000010 0.000001 -0.000000 -3.000001 -0.000001 0.999996 -0.000008 0.000002 0.000001 -0.000000 0.000001 -0.000000 -0.000010 -0.000001 0.000000 
0.000000 0.000000 0.000000 0.000009 0.000000 -0.000000 -0.000000 0.000000 -0.000000 0.000000 0.000000 6.500000 11.111113 0.000000 -0.000000 0.000000 -0.000000 14.000000 -0.000000 0.000000 -0.000000 4.500003 -0.000002 11.000004 10.492616 -7.757254 -8.132239 2.300000 -1.300002 -4.999997 0.000006 -0.000004 -0.000009 -0.000000 -0.000005 0.000002 0.000007 -0.000000 -0.000006 -4.499999 -0.000001 11.000003 6.885030 7.234342 16.747515 0.000001 0.000010 0.000002 0.000004 0.000003 0.000007 3.000001 -0.000001 0.999996 -0.000008 -0.000002 -0.000001 -0.000000 -0.000001 0.000000 -0.000010 0.000001 -0.000000 -3.000001 -0.000001 0.999996 -0.000008 0.000002 0.000001 -0.000000 0.000001 -0.000000 -0.000010 -0.000001 0.000000 
0.000000 0.000000 0.000000 0.000009 0.000000 -0.000000 -0.000000 0.000000 -0.000000 0.000000 0.000000 6.500000 12.000008 0.000000 -0.000000 0.000000 -0.000000 14.000000 -0.000000 0.000000 -0.000000 4.500002 -0.000002 10.999995 11.046375 -8.357752 -8.876741 2.299999 -1.300001 -5.000002 0.000005 -0.000005 -0.000004 -0.000000 -0.000009 -0.000002 0.000015 -0.000002 -0.000003 -4.500000 -0.000002 11.000003 8.317763 9.410490 20.988162 0.000003 0.000014 0.000003 0.000004 0.000000 0.000007 3.000001 -0.000001 0.999996 -0.000008 -0.000002 -0.000001 -0.000000 -0.000001 0.000000 -0.000010 0.000001 -0.000000 -3.000001 -0.000001 0.999996 -0.000008 0.000002 0.000001 -0.000000 0.000001 -0.000000 -0.000010 -0.000001 0.000000 
0.000000 0.000000 0.000000 0.000009 0.000000 -0.000000 -0.000000 0.000000 -0.000000 0.000000 0.000000 6.500000 12.000008 0.000000 -0.000000 0.000000 -0.000000 14.000000 -0.000000 0.000000 -0.000000 4.500002 -0.000002 10.999996 11.095461 -8.393348 -8.837795 2.300001 -1.299999 -4.999998 0.000002 -0.000007 -0.000006 -0.000002 -0.000005 0.000003 0.000016 -0.000000 -0.000005 -4.499999 -0.000001 10.999999 9.377731 11.273994 24.454563 0.000002 0.000014 0.000002 0.000004 0.000002 0.000006 3.000001 -0.000001 0.999996 -0.000008 -0.000002 -0.000001 -0.000000 -0.000001 0.000000 -0.000010 0.000001 -0.000000 -3.000001 -0.000001 0.999996 -0.000008 0.000002 0.000001 -0.000000 0.000001 -0.000000 -0.000010 -0.000001 0.000000 
0.000000 0.000000 0.000000 0.000009 0.000000 -0.000000 -0.000000 0.000000 -0.000000 0.000000 0.000000 6.500000 12.000008 0.000000 -0.000000 0.000000 -0.000000 14.000000 -0.000000 0.000000 -0.000000 4.500002 -0.000003 10.999998 11.144579 -8.428908 -8.798812 2.299999 -1.300002 -5.000002 0.000004 -0.000006 -0.000012 -0.000002 -0.000003 -0.000000 0.000016 0.000003 -0.000007 -4.499999 -0.000002 10.999996 10.093023 12.695000 27.018085 0.000002 0.000015 0.000003 0.000006 0.000006 0.000007 3.000001 -0.000001 0.999996 -0.000008 -0.000002 -0.000001 -0.000000 -0.000001 0.000000 -0.000010 0.000001 -0.000000 -3.000001 -0.000001 0.999996 -0.000008 0.000002 0.000001 -0.000000 0.000001 -0.000000 -0.000010 -0.000001 0.000000 
0.000000 0.000000 0.000000 0.000009 0.000000 -0.000000 -0.000000 0.000000 -0.000000 0.000000 0.000000 6.500000 12.000008 0.000000 -0.000000 0.000000 -0.000000 14.000000 -0.000000 0.000000 -0.000000 4.500003 -0.000002 10.999998 11.193722 -8.464438 -8.759801 2.300002 -1.300001 -5.000004 0.000005 -0.000007 -0.000010 -0.000004 -0.000003 0.000001 0.000011 -0.000000 -0.000010 -4.499999 -0.000002 11.000000 10.506708 13.593939 28.610525 0.000002 0.000014 -0.000000 0.000003 0.000007 0.000005 3.000001 -0.000001 0.999996 -0.000008 -0.000002 -0.000001 -0.000000 -0.000001 0.000000 -0.000010 0.000001 -0.000000 -3.000001 -0.000001 0.999996 -0.000008 0.000002 0.000001 -0.000000 0.000001 -0.000000 -0.000010 -0.000001 0.000000 
0.000000 0.000000 0.000000 0.000009 0.000000 -0.000000 -0.000000 0.000000 -0.000000 0.000000 0.000000 6.500000 12.000008 0.000000 -0.000000 0.000000 -0.000000 14.000000 -0.000000 0.000000 -0.000000 4.500002 -0.000002 11.000000 11.242894 -8.499935 -8.720754 2.300000 -1.300002 -5.000003 0.000009 -0.000003 -0.000010 -0.000004 -0.000003 0.000001 0.000010 -0.000003 -0.000005 -4.500000 -0.000001 10.999999 10.643419 13.905753 29.158190 0.000004 0.000013 0.000002 0.000001 0.000003 0.000011 3.000001 -0.000001 0.999996 -0.000008 -0.000002 -0.000001 -0.000000 -0.000001 0.000000 -0.000010 0.000001 -0.000000 -3.000001 -0.000001 0.999996 -0.000008 0.000002 0.000001 -0.000000 0.000001 -0.000000 -0.000010 -0.000001 0.000000 
0.000000 0.000000 0.000000 0.000009 0.000000 -0.000000 -0.000000 0.000000 -0.000000 0.000000 0.000000 6.500000 10.125003 0.000000 -0.000000 0.000000 0.000000 14.000000 -0.000000 0.000000 -0.000000 4.500003 -0.000001 11.000000 9.644279 -6.952717 -7.468512 2.300001 -1.300001 -5.000004 0.000004 -0.000005 -0.000009 -0.000005 -0.000007 -0.000001 0.000014 0.000001 -0.000007 -4.499999 0.000000 11.000007 9.447962 11.406967 24.697102 0.000007 0.000011 0.000002 0.000006 0.000004 0.000007 3.000001 -0.000001 0.999996 -0.000008 -0.000002 -0.000001 -0.000000 -0.000001 0.000000 -0.000010 0.000001 -0.000000 -3.000001 -0.000001 0.999996 -0.000008 0.000002 0.000001 -0.000000 0.000001 -0.000000 -0.000010 -0.000001 0.000000 
0.000000 0.000000 0.000000 0.000009 0.000000 -0.000000 -0.000000 0.000000 -0.000000 0.000000 0.000000 6.500000 5.999998 0.000000 -0.000000 0.000000 0.000000 14.000000 -0.000000 0.000000 -0.000000 4.500001 -0.000001 11.000001 5.916232 -3.820502 -4.567952 2.300001 -1.299999 -5.000004 0.000003 -0.000006 -0.000005 -0.000002 -0.000000 -0.000000 0.000011 -0.000000 -0.000007 -4.500000 -0.000001 11.000001 6.180635 6.277815 14.801519 0.000003 0.000014 0.000007 0.000000 0.000001 0.000008 3.000001 -0.000001 0.999996 -0.000008 -0.000002 -0.000001 -0.000000 -0.000001 0.000000 -0.000010 0.000001 -0.000000 -3.000001 -0.000001 0.999996 -0.000008 0.000002 0.000001 -0.000000 0.000001 -0.000000 -0.000010 -0.000001 0.000000 
0.000000 0.000000 0.000000 0.000009 0.000000 -0.000000 -0.000000 0.000000 -0.000000 0.000000 0.000000 6.500000 1.875000 0.000000 -0.000000 0.000000 0.000000 14.000000 -0.000000 0.000000 -0.000000 4.500003 -0.000002 10.999999 1.908756 -1.094335 -1.470139 2.299999 -1.300000 -4.999998 0.000005 -0.000009 -0.000009 0.000001 -0.000000 0.000007 0.000012 -0.000000 -0.000009 -4.500000 -0.000002 10.999999 2.100393 1.787147 4.690320 0.000004 0.000011 0.000002 0.000001 0.000006 0.000007 3.000001 -0.000001 0.999996 -0.000008 -0.000002 -0.000001 -0.000000 -0.000001 0.000000 -0.000010 0.000001 -0.000000 -3.000001 -0.000001 0.999996 -0.000008 0.000002 0.000001 -0.000000 0.000001 -0.000000 -0.000010 -0.000001 0.000000 
0.000000 0.000000 0.000000 0.000009 0.000000 -0.000000 -0.000000 0.000000 -0.000000 0.000000 0.000000 6.500000 -0.000000 0.000000 -0.000000 0.000000 0.000000 14.000000 -0.000000 0.000000 -0.000000 4.500003 -0.000002 11.000000 -0.000007 0.000004 -0.000000 2.300000 -1.300001 -5.000000 0.000008 -0.000008 -0.000012 -0.000000 -0.000007 -0.000003 0.000011 -0.000002 -0.000010 -4.500000 -0.000002 10.999996 0.000003 0.000003 -0.000001 0.000004 0.000012 -0.000000 0.000001 0.000007 0.000005 3.000001 -0.000001 0.999996 -0.000008 -0.000002 -0.000001 -0.000000 -0.000001 0.000000 -0.000010 0.000001 -0.000000 -3.000001 -0.000001 0.999996 -0.000008 0.000002 0.000001 -0.000000 0.000001 -0.000000 -0.000010 -0.000001 0.000000 
